[{"OBJECT_NAME":"OBJECT M","OBJECT_ID":"2024-205M","EPOCH":"2026-03-09T22:23:47.520096","MEAN_MOTION":15.27663844,"ECCENTRICITY":0.00036602,"INCLINATION":97.3915,"RA_OF_ASC_NODE":144.193,"ARG_OF_PERICENTER":310.2554,"MEAN_ANOMALY":49.8364,"EPHEMERIS_TYPE":0,"CLASSIFICATION_TYPE":"U","NORAD_CAT_ID":61905,"ELEMENT_SET_NO":999,"REV_AT_EPOCH":7334,"BSTAR":0.00036391974,"MEAN_MOTION_DOT":9.771e-5,"MEAN_MOTION_DDOT":0},{"OBJECT_NAME":"STARLINK-35404","OBJECT_ID":"2025-253T","EPOCH":"2026-03-09T09:59:38.111712","MEAN_MOTION":15.2759481,"ECCENTRICITY":0.00011728,"INCLINATION":42.9989,"RA_OF_ASC_NODE":213.9611,"ARG_OF_PERICENTER":281.8139,"MEAN_ANOMALY":78.2581,"EPHEMERIS_TYPE":0,"CLASSIFICATION_TYPE":"U","NORAD_CAT_ID":66336,"ELEMENT_SET_NO":999,"REV_AT_EPOCH":2020,"BSTAR":0.0010355503,"MEAN_MOTION_DOT":0.00028356,"MEAN_MOTION_DDOT":0}]
